TIANMU-1 08             
1 57400U 23101B   26066.00237819  .00000346  00000+0  14775-4 0  9993
2 57400  97.2717 118.7901 0006380 134.2174 225.9592 15.29204229146020
STARLINK-31346          
1 58943U 24027N   26068.97587990 -.00002720  00000+0 -79707-4 0  9996
2 58943  53.1615 306.0675 0001273 116.8249 243.2882 15.30208288117402
